XRISM                   
1 57800U 23137A   24104.31505103  .00005169  00000+0  39655-3 0  9996
2 57800  31.0038  65.2912 0010245 284.9532  74.9969 15.00247006 32854
